[
    {
        "CCSDS_OMM_VERS": "3.0",
        "COMMENT": "GENERATED VIA SPACE-TRACK.ORG API",
        "CREATION_DATE": "2025-05-03T17:28:03",
        "ORIGINATOR": "18 SPCS",
        "OBJECT_NAME": "COSMOS 2534 (GLONASS)",
        "OBJECT_ID": "2019-030A",
        "CENTER_NAME": "EARTH",
        "REF_FRAME": "TEME",
        "TIME_SYSTEM": "UTC",
        "MEAN_ELEMENT_THEORY": "SGP4",
        "EPOCH": "2025-05-03T07:39:11.052288",
        "MEAN_MOTION": "2.13102336",
        "ECCENTRICITY": "0.00118900",
        "INCLINATION": "64.3649",
        "RA_OF_ASC_NODE": "206.4218",
        "ARG_OF_PERICENTER": "278.9636",
        "MEAN_ANOMALY": "62.5281",
        "EPHEMERIS_TYPE": "0",
        "CLASSIFICATION_TYPE": "U",
        "NORAD_CAT_ID": "44299",
        "ELEMENT_SET_NO": "999",
        "REV_AT_EPOCH": "4618",
        "BSTAR": "0.00000000000000",
        "MEAN_MOTION_DOT": "-0.00000015",
        "MEAN_MOTION_DDOT": "0.0000000000000",
        "SEMIMAJOR_AXIS": "25507.998",
        "PERIOD": "675.732",
        "APOAPSIS": "19160.192",
        "PERIAPSIS": "19099.534",
        "OBJECT_TYPE": "PAYLOAD",
        "RCS_SIZE": "LARGE",
        "COUNTRY_CODE": "CIS",
        "LAUNCH_DATE": "2019-05-27",
        "SITE": "PKMTR",
        "DECAY_DATE": null,
        "FILE": "4717971",
        "GP_ID": "286763210",
        "TLE_LINE0": "0 COSMOS 2534 (GLONASS)",
        "TLE_LINE1": "1 44299U 19030A   25123.31887792 -.00000015  00000-0  00000-0 0  9996",
        "TLE_LINE2": "2 44299  64.3649 206.4218 0011890 278.9636  62.5281  2.13102336 46189"
    }
]